H1 CPF 01  gfz 2021 09 30 00  7731 terrasarx 
H2 0702601  6201 31698    2021 09 30 00 59 42 2021 10 05 00 00 42   120 1 1  0 0 0
H9
10 0 59488  82782.000000  0    2013563.311  -5516338.235  -3610261.025
10 0 59488  82902.000000  0    1975068.063  -5974790.837  -2812544.604
10 0 59488  83022.000000  0    1895044.387  -6328060.571  -1965455.351
10 0 59488  83142.000000  0    1776757.978  -6569188.061  -1083831.728
10 0 59488  83262.000000  0    1624253.215  -6693241.097   -183150.617
10 0 59488  83382.000000  0    1442248.084  -6697423.182    720751.428
10 0 59488  83502.000000  0    1236014.004  -6581140.030   1611962.835
10 0 59488  83622.000000  0    1011244.030  -6346023.193   2474787.705
10 0 59488  83742.000000  0     773913.238  -5995905.386   3294031.425
10 0 59488  83862.000000  0     530133.311  -5536752.758   4055274.795
10 0 59488  83982.000000  0     286006.957  -4976555.678   4745131.691
10 0 59488  84102.000000  0      47484.943  -4325180.364   5351486.193
10 0 59488  84222.000000  0    -179770.316  -3594185.004   5863704.146
10 0 59488  84342.000000  0    -390511.251  -2796604.596   6272816.232
10 0 59488  84462.000000  0    -580020.106  -1946710.648   6571667.667
10 0 59488  84582.000000  0    -744209.616  -1059752.764   6755036.453
10 0 59488  84702.000000  0    -879707.717   -151683.451   6819720.481
10 0 59488  84822.000000  0    -983925.334    761129.756   6764590.513
10 0 59488  84942.000000  0   -1055105.206   1662199.064   6590608.409
10 0 59488  85062.000000  0   -1092351.145   2535213.517   6300811.250
10 0 59488  85182.000000  0   -1095638.114   3364334.147   5900261.781
10 0 59488  85302.000000  0   -1065802.858   4134483.212   5395965.062
10 0 59488  85422.000000  0   -1004514.241   4831621.936   4796752.012
10 0 59488  85542.000000  0    -914225.379   5443013.635   4113130.871
10 0 59488  85662.000000  0    -798106.721   5957464.394   3357105.944
10 0 59488  85782.000000  0    -659963.466   6365537.409   2541971.152
10 0 59488  85902.000000  0    -504137.605   6659738.960   1682073.992
10 0 59488  86022.000000  0    -335395.260   6834663.568    792557.443
10 0 59488  86142.000000  0    -158804.288   6887099.075   -110912.954
10 0 59488  86262.000000  0      20395.343   6816089.185  -1012433.234
10 0 59488  86382.000000  0     196925.230   6622949.223  -1896151.402
10 0 59489    102.000000  0     365601.039   6311234.247  -2746553.864
10 0 59489    222.000000  0     521461.806   5886664.584  -3548742.306
10 0 59489    342.000000  0     659893.496   5357009.975  -4288697.038
10 0 59489    462.000000  0     776743.443   4731934.874  -4953520.843
10 0 59489    582.000000  0     868423.033   4022809.928  -5531658.644
10 0 59489    702.000000  0     931996.165   3242495.008  -6013090.161
10 0 59489    822.000000  0     965251.466   2405098.282  -6389493.541
10 0 59489    942.000000  0     966757.886   1525717.174  -6654377.008
10 0 59489   1062.000000  0     935902.163    620167.314  -6803180.220
10 0 59489   1182.000000  0     872908.183   -295298.411  -6833344.880
10 0 59489   1302.000000  0     778837.828  -1204276.244  -6744353.353
10 0 59489   1422.000000  0     655573.071  -2090497.851  -6537734.823
10 0 59489   1542.000000  0     505780.605  -2938112.790  -6217042.572
10 0 59489   1662.000000  0     332858.048  -3731968.089  -5787801.776
10 0 59489   1782.000000  0     140862.931  -4457877.902  -5257422.763
10 0 59489   1902.000000  0     -65573.605  -5102878.291  -4635084.344
10 0 59489   2022.000000  0    -281348.560  -5655464.787  -3931586.595
10 0 59489   2142.000000  0    -501001.911  -6105807.117  -3159172.945
10 0 59489   2262.000000  0    -718842.260  -6445935.393  -2331324.205
10 0 59489   2382.000000  0    -929080.840  -6669894.544  -1462527.309
10 0 59489   2502.000000  0   -1125970.473  -6773861.419   -568020.755
10 0 59489   2622.000000  0   -1303946.102  -6756220.101    336477.095
10 0 59489   2742.000000  0   -1457763.563  -6617593.667   1235050.851
10 0 59489   2862.000000  0   -1582633.231  -6360831.337   2111876.719
10 0 59489   2982.000000  0   -1674344.363  -5990950.214   2951510.635
10 0 59489   3102.000000  0   -1729377.017  -5515032.807   3739168.618
10 0 59489   3222.000000  0   -1744998.014  -4942083.635   4460992.890
10 0 59489   3342.000000  0   -1719339.359  -4282849.917   5104297.615
10 0 59489   3462.000000  0   -1651458.418  -3549611.374   5657792.368
10 0 59489   3582.000000  0   -1541377.008  -2755941.171   6111778.191
10 0 59489   3702.000000  0   -1390098.323  -1916446.830   6458311.111
10 0 59489   3822.000000  0   -1199602.914  -1046497.702   6691334.803
10 0 59489   3942.000000  0    -972824.658   -161940.667   6806780.990
10 0 59489   4062.000000  0    -713606.412    721188.924   6802635.251
10 0 59489   4182.000000  0    -426634.817   1586957.180   6678970.653
10 0 59489   4302.000000  0    -117355.440   2419818.871   6437946.592
10 0 59489   4422.000000  0     208130.035   3204896.337   6083773.127
10 0 59489   4542.000000  0     543182.301   3928246.287   5622642.154
10 0 59489   4662.000000  0     880757.263   4577111.071   5062624.841
10 0 59489   4782.000000  0    1213551.521   5140149.462   4413536.342
10 0 59489   4902.000000  0    1534156.741   5607642.212   3686768.127
10 0 59489   5022.000000  0    1835220.417   5971668.953   2895093.866
10 0 59489   5142.000000  0    2109611.963   6226253.776   2052443.811
10 0 59489   5262.000000  0    2350584.535   6367471.162   1173655.305
10 0 59489   5382.000000  0    2551932.756   6393510.443    274204.393
10 0 59489   5502.000000  0    2708139.951   6304697.139   -630074.088
10 0 59489   5622.000000  0    2814512.785   6103472.664  -1523273.270
10 0 59489   5742.000000  0    2867299.638   5794331.328  -2389701.835
10 0 59489   5862.000000  0    2863789.494   5383717.178  -3214166.377
10 0 59489   5982.000000  0    2802388.818   4879882.140  -3982242.694
10 0 59489   6102.000000  0    2682674.102   4292710.188  -4680528.355
10 0 59489   6222.000000  0    2505419.677   3633513.907  -5296872.749
10 0 59489   6342.000000  0    2272601.467   2914808.639  -5820581.200
10 0 59489   6462.000000  0    1987376.770   2150068.808  -6242591.377
10 0 59489   6582.000000  0    1654040.150   1353471.939  -6555618.351
10 0 59489   6702.000000  0    1277958.440    539636.681  -6754268.698
10 0 59489   6822.000000  0     865484.305   -276641.819  -6835124.786
10 0 59489   6942.000000  0     423849.117  -1080656.131  -6796796.873
10 0 59489   7062.000000  0     -38961.304  -1858044.787  -6639942.665
10 0 59489   7182.000000  0    -514346.649  -2595041.148  -6367257.774
10 0 59489   7302.000000  0    -993248.011  -3278713.318  -5983435.954
10 0 59489   7422.000000  0   -1466315.796  -3897189.052  -5495095.879
10 0 59489   7542.000000  0   -1924087.734  -4439862.666  -4910678.543
10 0 59489   7662.000000  0   -2357175.231  -4897582.450  -4240313.407
10 0 59489   7782.000000  0   -2756454.435  -5262812.820  -3495652.819
10 0 59489   7902.000000  0   -3113257.268  -5529767.305  -2689677.590
10 0 59489   8022.000000  0   -3419558.780  -5694510.186  -1836476.303
10 0 59489   8142.000000  0   -3668156.905  -5755023.659   -951000.608
10 0 59489   8262.000000  0   -3852839.031  -5711237.360    -48800.112
10 0 59489   8382.000000  0   -3968530.480  -5565018.571    854256.897
10 0 59489   8502.000000  0   -4011421.540  -5320123.281   1742270.977
10 0 59489   8622.000000  0   -3979069.061  -4982108.141   2599601.123
10 0 59489   8742.000000  0   -3870469.829  -4558206.072   3411148.440
10 0 59489   8862.000000  0   -3686104.615  -4057169.828   4162628.709
10 0 59489   8982.000000  0   -3427951.299  -3489086.423   4840828.448
10 0 59489   9102.000000  0   -3099467.201  -2865167.380   5433837.827
10 0 59489   9222.000000  0   -2705541.793  -2197521.800   5931257.319
10 0 59489   9342.000000  0   -2252420.925  -1498917.387   6324376.011
10 0 59489   9462.000000  0   -1747604.508   -782532.681   6606320.380
10 0 59489   9582.000000  0   -1199717.640    -61704.766   6772167.966
10 0 59489   9702.000000  0    -618361.726    650318.282   6819025.516
10 0 59489   9822.000000  0     -13946.686   1340619.699   6746077.015
10 0 59489   9942.000000  0     602495.182   1996848.102   6554597.370
10 0 59489  10062.000000  0    1219510.280   2607438.526   6247931.036
10 0 59489  10182.000000  0    1825435.561   3161816.091   5831436.932
10 0 59489  10302.000000  0    2408618.334   3650581.514   5312401.078
10 0 59489  10422.000000  0    2957641.784   4065675.224   4699915.694
10 0 59489  10542.000000  0    3461551.058   4400514.930   4004724.096
10 0 59489  10662.000000  0    3910073.349   4650104.606   3239037.259
10 0 59489  10782.000000  0    4293833.268   4811115.768   2416322.245
10 0 59489  10902.000000  0    4604552.016   4881932.558   1551060.409
10 0 59489  11022.000000  0    4835225.772   4862663.353    658489.622
10 0 59489  11142.000000  0    4980284.317   4755118.186   -245671.913
10 0 59489  11262.000000  0    5035717.957   4562748.965  -1145512.558
10 0 59489  11382.000000  0    4999173.382   4290556.650  -2025214.979
10 0 59489  11502.000000  0    4870017.262   3944968.580  -2869341.081
10 0 59489  11622.000000  0    4649364.627   3533688.412  -3663108.045
10 0 59489  11742.000000  0    4340071.335   3065523.517  -4392649.225
10 0 59489  11862.000000  0    3946692.243   2550193.760  -5045254.587
10 0 59489  11982.000000  0    3475407.472   1998126.500  -5609586.451
10 0 59489  12102.000000  0    2933917.986   1420243.727  -6075868.070
10 0 59489  12222.000000  0    2331312.886    827745.728  -6436042.158
10 0 59489  12342.000000  0    1677912.878    231895.881  -6683897.836
10 0 59489  12462.000000  0     985093.929   -356189.349  -6815167.512
10 0 59489  12582.000000  0     265090.382   -925743.871  -6827593.732
10 0 59489  12702.000000  0    -469217.403  -1466544.080  -6720961.787
10 0 59489  12822.000000  0   -1204527.082  -1969086.885  -6497103.171
99
